ION SCV-004             
1 50993U 22002K   26068.68892644  .00006538  00000+0  23198-3 0  9998
2 50993  97.2961 128.2294 0007216   1.6783 358.4480 15.29369331230088
STARLINK-34826          
1 65360U 25190K   26068.56255117  .00020207  00000+0  69281-3 0  9990
2 65360  53.1574 168.9178 0001002  79.5417 280.5696 15.30186722 29263
