[{"OBJECT_NAME":"ION SCV-004","OBJECT_ID":"2022-002K","EPOCH":"2026-03-09T16:32:03.244416","MEAN_MOTION":15.29369331,"ECCENTRICITY":0.00072157,"INCLINATION":97.2961,"RA_OF_ASC_NODE":128.2294,"ARG_OF_PERICENTER":1.6783,"MEAN_ANOMALY":358.448,"EPHEMERIS_TYPE":0,"CLASSIFICATION_TYPE":"U","NORAD_CAT_ID":50993,"ELEMENT_SET_NO":999,"REV_AT_EPOCH":23008,"BSTAR":0.00023198467,"MEAN_MOTION_DOT":6.538e-5,"MEAN_MOTION_DDOT":0},{"OBJECT_NAME":"STARLINK-34826","OBJECT_ID":"2025-190K","EPOCH":"2026-03-09T13:30:04.421088","MEAN_MOTION":15.30186722,"ECCENTRICITY":0.0001002,"INCLINATION":53.1574,"RA_OF_ASC_NODE":168.9178,"ARG_OF_PERICENTER":79.5417,"MEAN_ANOMALY":280.5696,"EPHEMERIS_TYPE":0,"CLASSIFICATION_TYPE":"U","NORAD_CAT_ID":65360,"ELEMENT_SET_NO":999,"REV_AT_EPOCH":2926,"BSTAR":0.00069281,"MEAN_MOTION_DOT":0.00020207,"MEAN_MOTION_DDOT":0}]
